MALLIGYONG-1            
1 58400U 23179A   24072.66626607  .00005035  00000+0  22749-3 0  9992
2 58400  97.4172 320.9566 0008064 234.4017 125.6468 15.21381121 17048
